{"fetched_at":"2026-07-15T17:46:49.740Z","source":"https://celestrak.org/NORAD/elements/gp.php?GROUP=qianfan&FORMAT=JSON","constellation":"qianfan","records":[{"OBJECT_NAME":"QIANFAN-145","OBJECT_ID":"2026-108A","EPOCH":"2026-07-15T03:26:49.255296","CLASSIFICATION_TYPE":"U","MEAN_MOTION":13.67713943,"ECCENTRICITY":0.0019486,"INCLINATION":89.0102,"RA_OF_ASC_NODE":19.2656,"ARG_OF_PERICENTER":21.7458,"MEAN_ANOMALY":338.4525,"EPHEMERIS_TYPE":0,"NORAD_CAT_ID":69104,"ELEMENT_SET_NO":999,"REV_AT_EPOCH":820,"BSTAR":0.00001288,"MEAN_MOTION_DOT":2.3e-7,"MEAN_MOTION_DDOT":0},{"OBJECT_NAME":"QIANFAN-146","OBJECT_ID":"2026-108B","EPOCH":"2026-07-15T02:18:10.247616","CLASSIFICATION_TYPE":"U","MEAN_MOTION":13.83218014,"ECCENTRICITY":0.0024607,"INCLINATION":89.0104,"RA_OF_ASC_NODE":19.173,"ARG_OF_PERICENTER":25.9508,"MEAN_ANOMALY":334.289,"EPHEMERIS_TYPE":0,"NORAD_CAT_ID":69105,"ELEMENT_SET_NO":999,"REV_AT_EPOCH":825,"BSTAR":-1.9766,"MEAN_MOTION_DOT":-0.0202466,"MEAN_MOTION_DDOT":0},{"OBJECT_NAME":"QIANFAN-147","OBJECT_ID":"2026-108C","EPOCH":"2026-07-15T03:14:48.625728","CLASSIFICATION_TYPE":"U","MEAN_MOTION":13.625207,"ECCENTRICITY":0.0019135,"INCLINATION":89.0106,"RA_OF_ASC_NODE":19.2649,"ARG_OF_PERICENTER":20.3633,"MEAN_ANOMALY":339.8283,"EPHEMERIS_TYPE":0,"NORAD_CAT_ID":69106,"ELEMENT_SET_NO":999,"REV_AT_EPOCH":819,"BSTAR":0.000014266,"MEAN_MOTION_DOT":2.3e-7,"MEAN_MOTION_DDOT":0},{"OBJECT_NAME":"QIANFAN-148","OBJECT_ID":"2026-108D","EPOCH":"2026-07-15T01:19:17.545152","CLASSIFICATION_TYPE":"U","MEAN_MOTION":13.60319481,"ECCENTRICITY":0.0017315,"INCLINATION":89.0087,"RA_OF_ASC_NODE":19.2708,"ARG_OF_PERICENTER":20.121,"MEAN_ANOMALY":340.0625,"EPHEMERIS_TYPE":0,"NORAD_CAT_ID":69107,"ELEMENT_SET_NO":999,"REV_AT_EPOCH":818,"BSTAR":-3.0291,"MEAN_MOTION_DOT":-0.02120154,"MEAN_MOTION_DDOT":0},{"OBJECT_NAME":"QIANFAN-149","OBJECT_ID":"2026-108E","EPOCH":"2026-07-15T02:17:05.400096","CLASSIFICATION_TYPE":"U","MEAN_MOTION":13.60296145,"ECCENTRICITY":0.0019562,"INCLINATION":89.0091,"RA_OF_ASC_NODE":19.2767,"ARG_OF_PERICENTER":12.6411,"MEAN_ANOMALY":347.5232,"EPHEMERIS_TYPE":0,"NORAD_CAT_ID":69108,"ELEMENT_SET_NO":999,"REV_AT_EPOCH":819,"BSTAR":-2.9139,"MEAN_MOTION_DOT":-0.0204435,"MEAN_MOTION_DDOT":0},{"OBJECT_NAME":"QIANFAN-150","OBJECT_ID":"2026-108F","EPOCH":"2026-07-15T00:55:31.819008","CLASSIFICATION_TYPE":"U","MEAN_MOTION":13.64159486,"ECCENTRICITY":0.0021759,"INCLINATION":89.0097,"RA_OF_ASC_NODE":19.2526,"ARG_OF_PERICENTER":22.4996,"MEAN_ANOMALY":337.7112,"EPHEMERIS_TYPE":0,"NORAD_CAT_ID":69109,"ELEMENT_SET_NO":999,"REV_AT_EPOCH":819,"BSTAR":-2.5389,"MEAN_MOTION_DOT":-0.01885134,"MEAN_MOTION_DDOT":0},{"OBJECT_NAME":"QIANFAN-151","OBJECT_ID":"2026-108G","EPOCH":"2026-07-15T01:58:47.843616","CLASSIFICATION_TYPE":"U","MEAN_MOTION":13.64168972,"ECCENTRICITY":0.0021599,"INCLINATION":89.0098,"RA_OF_ASC_NODE":19.258,"ARG_OF_PERICENTER":23.298,"MEAN_ANOMALY":336.9153,"EPHEMERIS_TYPE":0,"NORAD_CAT_ID":69110,"ELEMENT_SET_NO":999,"REV_AT_EPOCH":819,"BSTAR":-2.6503,"MEAN_MOTION_DOT":-0.01983326,"MEAN_MOTION_DDOT":0},{"OBJECT_NAME":"QIANFAN-152","OBJECT_ID":"2026-108H","EPOCH":"2026-07-15T03:03:11.408832","CLASSIFICATION_TYPE":"U","MEAN_MOTION":13.61898424,"ECCENTRICITY":0.0016274,"INCLINATION":89.0086,"RA_OF_ASC_NODE":19.246,"ARG_OF_PERICENTER":35.9805,"MEAN_ANOMALY":324.2444,"EPHEMERIS_TYPE":0,"NORAD_CAT_ID":69111,"ELEMENT_SET_NO":999,"REV_AT_EPOCH":821,"BSTAR":-2.8828,"MEAN_MOTION_DOT":-0.02072381,"MEAN_MOTION_DDOT":0},{"OBJECT_NAME":"QIANFAN-153","OBJECT_ID":"2026-108J","EPOCH":"2026-07-15T03:38:33.434304","CLASSIFICATION_TYPE":"U","MEAN_MOTION":13.71252058,"ECCENTRICITY":0.0020633,"INCLINATION":89.0096,"RA_OF_ASC_NODE":19.2461,"ARG_OF_PERICENTER":28.9017,"MEAN_ANOMALY":331.3284,"EPHEMERIS_TYPE":0,"NORAD_CAT_ID":69112,"ELEMENT_SET_NO":999,"REV_AT_EPOCH":820,"BSTAR":0.000029886,"MEAN_MOTION_DOT":4e-7,"MEAN_MOTION_DDOT":0},{"OBJECT_NAME":"QIANFAN-154","OBJECT_ID":"2026-108K","EPOCH":"2026-07-15T02:22:00.098400","CLASSIFICATION_TYPE":"U","MEAN_MOTION":13.58379113,"ECCENTRICITY":0.0019385,"INCLINATION":89.0093,"RA_OF_ASC_NODE":19.2624,"ARG_OF_PERICENTER":15.2329,"MEAN_ANOMALY":344.9406,"EPHEMERIS_TYPE":0,"NORAD_CAT_ID":69113,"ELEMENT_SET_NO":999,"REV_AT_EPOCH":820,"BSTAR":-2.8835,"MEAN_MOTION_DOT":-0.01966959,"MEAN_MOTION_DDOT":0},{"OBJECT_NAME":"QIANFAN-155","OBJECT_ID":"2026-108L","EPOCH":"2026-07-15T02:55:00.407136","CLASSIFICATION_TYPE":"U","MEAN_MOTION":13.63388496,"ECCENTRICITY":0.0019818,"INCLINATION":89.0101,"RA_OF_ASC_NODE":19.2471,"ARG_OF_PERICENTER":29.2162,"MEAN_ANOMALY":331.01,"EPHEMERIS_TYPE":0,"NORAD_CAT_ID":69114,"ELEMENT_SET_NO":999,"REV_AT_EPOCH":820,"BSTAR":-2.8318,"MEAN_MOTION_DOT":-0.02085127,"MEAN_MOTION_DDOT":0},{"OBJECT_NAME":"QIANFAN-156","OBJECT_ID":"2026-108M","EPOCH":"2026-07-15T03:04:00.540192","CLASSIFICATION_TYPE":"U","MEAN_MOTION":13.6511508,"ECCENTRICITY":0.0024116,"INCLINATION":89.0108,"RA_OF_ASC_NODE":19.2338,"ARG_OF_PERICENTER":23.6117,"MEAN_ANOMALY":336.6144,"EPHEMERIS_TYPE":0,"NORAD_CAT_ID":69115,"ELEMENT_SET_NO":999,"REV_AT_EPOCH":822,"BSTAR":-2.4599,"MEAN_MOTION_DOT":-0.01857504,"MEAN_MOTION_DDOT":0},{"OBJECT_NAME":"QIANFAN-157","OBJECT_ID":"2026-108N","EPOCH":"2026-07-15T02:56:56.115744","CLASSIFICATION_TYPE":"U","MEAN_MOTION":13.72826947,"ECCENTRICITY":0.0019015,"INCLINATION":89.009,"RA_OF_ASC_NODE":19.1902,"ARG_OF_PERICENTER":23.0714,"MEAN_ANOMALY":337.1299,"EPHEMERIS_TYPE":0,"NORAD_CAT_ID":69116,"ELEMENT_SET_NO":999,"REV_AT_EPOCH":824,"BSTAR":-2.3357,"MEAN_MOTION_DOT":-0.02010422,"MEAN_MOTION_DDOT":0},{"OBJECT_NAME":"QIANFAN-158","OBJECT_ID":"2026-108P","EPOCH":"2026-07-15T03:18:47.689344","CLASSIFICATION_TYPE":"U","MEAN_MOTION":13.67997556,"ECCENTRICITY":0.002383,"INCLINATION":89.0095,"RA_OF_ASC_NODE":19.2112,"ARG_OF_PERICENTER":39.2516,"MEAN_ANOMALY":321.0367,"EPHEMERIS_TYPE":0,"NORAD_CAT_ID":69117,"ELEMENT_SET_NO":999,"REV_AT_EPOCH":823,"BSTAR":-2.5319,"MEAN_MOTION_DOT":-0.02014701,"MEAN_MOTION_DDOT":0},{"OBJECT_NAME":"QIANFAN-159","OBJECT_ID":"2026-108Q","EPOCH":"2026-07-15T02:50:17.594016","CLASSIFICATION_TYPE":"U","MEAN_MOTION":13.62949475,"ECCENTRICITY":0.0018706,"INCLINATION":89.0082,"RA_OF_ASC_NODE":19.2232,"ARG_OF_PERICENTER":23.9341,"MEAN_ANOMALY":336.2682,"EPHEMERIS_TYPE":0,"NORAD_CAT_ID":69118,"ELEMENT_SET_NO":999,"REV_AT_EPOCH":822,"BSTAR":-2.7673,"MEAN_MOTION_DOT":-0.02026857,"MEAN_MOTION_DDOT":0},{"OBJECT_NAME":"QIANFAN-160","OBJECT_ID":"2026-108R","EPOCH":"2026-07-15T03:36:36.490176","CLASSIFICATION_TYPE":"U","MEAN_MOTION":13.5977361,"ECCENTRICITY":0.0016917,"INCLINATION":89.0102,"RA_OF_ASC_NODE":19.2326,"ARG_OF_PERICENTER":25.1314,"MEAN_ANOMALY":335.0662,"EPHEMERIS_TYPE":0,"NORAD_CAT_ID":69119,"ELEMENT_SET_NO":999,"REV_AT_EPOCH":822,"BSTAR":-2.9697,"MEAN_MOTION_DOT":-0.02064195,"MEAN_MOTION_DDOT":0}]}
