QIANFAN-145             
1 69104U 26108A   26196.14362564  .00000023  00000+0  12880-4 0  9999
2 69104  89.0102  19.2656 0019486  21.7458 338.4525 13.67713943  8200
QIANFAN-146             
1 69105U 26108B   26196.09595194 -.02024660  00000+0 -19766+1 0  9994
2 69105  89.0104  19.1730 0024607  25.9508 334.2890 13.83218014  8259
QIANFAN-147             
1 69106U 26108C   26196.13528502  .00000023  00000+0  14266-4 0  9996
2 69106  89.0106  19.2649 0019135  20.3633 339.8283 13.62520700  8195
QIANFAN-148             
1 69107U 26108D   26196.05506418 -.02120154  00000+0 -30291+1 0  9994
2 69107  89.0087  19.2708 0017315  20.1210 340.0625 13.60319481  8180
QIANFAN-149             
1 69108U 26108E   26196.09520139 -.02044350  00000+0 -29139+1 0  9997
2 69108  89.0091  19.2767 0019562  12.6411 347.5232 13.60296145  8194
QIANFAN-150             
1 69109U 26108F   26196.03856272 -.01885134  00000+0 -25389+1 0  9997
2 69109  89.0097  19.2526 0021759  22.4996 337.7112 13.64159486  8190
QIANFAN-151             
1 69110U 26108G   26196.08249819 -.01983326  00000+0 -26503+1 0  9998
2 69110  89.0098  19.2580 0021599  23.2980 336.9153 13.64168972  8193
QIANFAN-152             
1 69111U 26108H   26196.12721538 -.02072381  00000+0 -28828+1 0  9990
2 69111  89.0086  19.2460 0016274  35.9805 324.2444 13.61898424  8213
QIANFAN-153             
1 69112U 26108J   26196.15177586  .00000040  00000+0  29886-4 0  9990
2 69112  89.0096  19.2461 0020633  28.9017 331.3284 13.71252058  8205
QIANFAN-154             
1 69113U 26108K   26196.09861225 -.01966959  00000+0 -28835+1 0  9996
2 69113  89.0093  19.2624 0019385  15.2329 344.9406 13.58379113  8204
QIANFAN-155             
1 69114U 26108L   26196.12153249 -.02085127  00000+0 -28318+1 0  9997
2 69114  89.0101  19.2471 0019818  29.2162 331.0100 13.63388496  8204
QIANFAN-156             
1 69115U 26108M   26196.12778403 -.01857504  00000+0 -24599+1 0  9995
2 69115  89.0108  19.2338 0024116  23.6117 336.6144 13.65115080  8229
QIANFAN-157             
1 69116U 26108N   26196.12287171 -.02010422  00000+0 -23357+1 0  9995
2 69116  89.0090  19.1902 0019015  23.0714 337.1299 13.72826947  8243
QIANFAN-158             
1 69117U 26108P   26196.13805196 -.02014701  00000+0 -25319+1 0  9994
2 69117  89.0095  19.2112 0023830  39.2516 321.0367 13.67997556  8238
QIANFAN-159             
1 69118U 26108Q   26196.11825919 -.02026857  00000+0 -27673+1 0  9998
2 69118  89.0082  19.2232 0018706  23.9341 336.2682 13.62949475  8229
QIANFAN-160             
1 69119U 26108R   26196.15042234 -.02064195  00000+0 -29697+1 0  9999
2 69119  89.0102  19.2326 0016917  25.1314 335.0662 13.59773610  8220
